{
  "type": "FeatureCollection",
  "features": [
    {
      "type": "Feature",
      "properties": {
        "norad_id": 41019,
        "name": "GPS BIIF-11 (PRN 10)",
        "group": "gnss",
        "lat": -12.448241913056261,
        "lon": 30.0719580506972,
        "alt_km": 20307.617888789136,
        "timestamp": "2025-12-03T19:33:07.218934+00:00",
        "meta_object_name": "GPS BIIF-11 (PRN 10)",
        "meta_object_id": "2015-062A",
        "meta_epoch": "2025-12-01T20:11:25.978560",
        "meta_mean_motion": 2.00566903,
        "meta_eccentricity": 0.01105097,
        "meta_inclination": 56.8244,
        "meta_ra_of_asc_node": 38.424,
        "meta_arg_of_pericenter": 229.6519,
        "meta_mean_anomaly": 129.4268,
        "meta_ephemeris_type": 0,
        "meta_classification_type": "U",
        "meta_norad_cat_id": 41019,
        "meta_element_set_no": 999,
        "meta_rev_at_epoch": 7387,
        "meta_bstar": 0,
        "meta_mean_motion_dot": -6.5e-07,
        "meta_mean_motion_ddot": 0,
        "tle_line1": "1 41019U 15062A   25335.84127290 -.00000065  00000+0  00000+0 0  9990",
        "tle_line2": "2 41019  56.8244  38.4240 0110509 229.6519 129.4268  2.00566903 73875"
      },
      "geometry": {
        "type": "Point",
        "coordinates": [
          30.0719580506972,
          -12.448241913056261
        ]
      }
    },
    {
      "type": "Feature",
      "properties": {
        "norad_id": 41028,
        "name": "GSAT-15 (GAGAN/PRN 139)",
        "group": "gnss",
        "lat": 0.01375109155326595,
        "lon": 99.62766003492126,
        "alt_km": 35794.83120993699,
        "timestamp": "2025-12-03T19:33:07.218984+00:00",
        "meta_object_name": "GSAT-15 (GAGAN/PRN 139)",
        "meta_object_id": "2015-065A",
        "meta_epoch": "2025-12-03T10:46:37.837920",
        "meta_mean_motion": 1.00272014,
        "meta_eccentricity": 0.0002986,
        "meta_inclination": 0.0283,
        "meta_ra_of_asc_node": 82.5972,
        "meta_arg_of_pericenter": 150.8081,
        "meta_mean_anomaly": 94.2882,
        "meta_ephemeris_type": 0,
        "meta_classification_type": "U",
        "meta_norad_cat_id": 41028,
        "meta_element_set_no": 999,
        "meta_rev_at_epoch": 3683,
        "meta_bstar": 0,
        "meta_mean_motion_dot": -2.4e-06,
        "meta_mean_motion_ddot": 0,
        "tle_line1": "1 41028U 15065A   25337.44904905 -.00000240  00000+0  00000+0 0  9992",
        "tle_line2": "2 41028   0.0283  82.5972 0002986 150.8081  94.2882  1.00272014 36831"
      },
      "geometry": {
        "type": "Point",
        "coordinates": [
          99.62766003492126,
          0.01375109155326595
        ]
      }
    },
    {
      "type": "Feature",
      "properties": {
        "norad_id": 41174,
        "name": "GSAT0209 (GALILEO 12)",
        "group": "gnss",
        "lat": 49.25364496429954,
        "lon": 158.9431294190039,
        "alt_km": 23213.854060834918,
        "timestamp": "2025-12-03T19:33:07.218998+00:00",
        "meta_object_name": "GSAT0209 (GALILEO 12)",
        "meta_object_id": "2015-079A",
        "meta_epoch": "2025-12-01T22:43:10.411392",
        "meta_mean_motion": 1.70474306,
        "meta_eccentricity": 0.0002352,
        "meta_inclination": 55.7062,
        "meta_ra_of_asc_node": 106.6773,
        "meta_arg_of_pericenter": 357.4206,
        "meta_mean_anomaly": 2.5431,
        "meta_ephemeris_type": 0,
        "meta_classification_type": "U",
        "meta_norad_cat_id": 41174,
        "meta_element_set_no": 999,
        "meta_rev_at_epoch": 6141,
        "meta_bstar": 0,
        "meta_mean_motion_dot": 3.5e-07,
        "meta_mean_motion_ddot": 0,
        "tle_line1": "1 41174U 15079A   25335.94664828  .00000035  00000+0  00000+0 0  9990",
        "tle_line2": "2 41174  55.7062 106.6773 0002352 357.4206   2.5431  1.70474306 61412"
      },
      "geometry": {
        "type": "Point",
        "coordinates": [
          158.9431294190039,
          49.25364496429954
        ]
      }
    },
    {
      "type": "Feature",
      "properties": {
        "norad_id": 41175,
        "name": "GSAT0208 (GALILEO 11)",
        "group": "gnss",
        "lat": -50.30813068883884,
        "lon": 51.339897130303086,
        "alt_km": 23226.60148758701,
        "timestamp": "2025-12-03T19:33:07.219010+00:00",
        "meta_object_name": "GSAT0208 (GALILEO 11)",
        "meta_object_id": "2015-079B",
        "meta_epoch": "2025-12-03T08:09:32.137920",
        "meta_mean_motion": 1.70474152,
        "meta_eccentricity": 0.0001907,
        "meta_inclination": 55.7055,
        "meta_ra_of_asc_node": 106.6362,
        "meta_arg_of_pericenter": 9.6551,
        "meta_mean_anomaly": 350.3047,
        "meta_ephemeris_type": 0,
        "meta_classification_type": "U",
        "meta_norad_cat_id": 41175,
        "meta_element_set_no": 999,
        "meta_rev_at_epoch": 6185,
        "meta_bstar": 0,
        "meta_mean_motion_dot": 2.2e-07,
        "meta_mean_motion_ddot": 0,
        "tle_line1": "1 41175U 15079B   25337.33995530  .00000022  00000+0  00000+0 0  9999",
        "tle_line2": "2 41175  55.7055 106.6362 0001907   9.6551 350.3047  1.70474152 61857"
      },
      "geometry": {
        "type": "Point",
        "coordinates": [
          51.339897130303086,
          -50.30813068883884
        ]
      }
    },
    {
      "type": "Feature",
      "properties": {
        "norad_id": 41241,
        "name": "IRNSS-1E",
        "group": "gnss",
        "lat": 26.4207890619586,
        "lon": 112.9172014079155,
        "alt_km": 35842.65926321812,
        "timestamp": "2025-12-03T19:33:07.219021+00:00",
        "meta_object_name": "IRNSS-1E",
        "meta_object_id": "2016-003A",
        "meta_epoch": "2025-12-02T15:46:14.293632",
        "meta_mean_motion": 1.00278203,
        "meta_eccentricity": 0.00219463,
        "meta_inclination": 32.8036,
        "meta_ra_of_asc_node": 62.6001,
        "meta_arg_of_pericenter": 186.4596,
        "meta_mean_anomaly": 170.9534,
        "meta_ephemeris_type": 0,
        "meta_classification_type": "U",
        "meta_norad_cat_id": 41241,
        "meta_element_set_no": 999,
        "meta_rev_at_epoch": 3610,
        "meta_bstar": 0,
        "meta_mean_motion_dot": -3.03e-06,
        "meta_mean_motion_ddot": 0,
        "tle_line1": "1 41241U 16003A   25336.65710988 -.00000303  00000+0  00000+0 0  9990",
        "tle_line2": "2 41241  32.8036  62.6001 0021946 186.4596 170.9534  1.00278203 36104"
      },
      "geometry": {
        "type": "Point",
        "coordinates": [
          112.9172014079155,
          26.4207890619586
        ]
      }
    },
    {
      "type": "Feature",
      "properties": {
        "norad_id": 41328,
        "name": "GPS BIIF-12 (PRN 32)",
        "group": "gnss",
        "lat": -52.579260433168656,
        "lon": 32.85805113881805,
        "alt_km": 20006.455305351155,
        "timestamp": "2025-12-03T19:33:07.219032+00:00",
        "meta_object_name": "GPS BIIF-12 (PRN 32)",
        "meta_object_id": "2016-007A",
        "meta_epoch": "2025-12-01T22:09:54.041760",
        "meta_mean_motion": 2.0056114,
        "meta_eccentricity": 0.00916487,
        "meta_inclination": 55.3999,
        "meta_ra_of_asc_node": 97.2864,
        "meta_arg_of_pericenter": 243.3101,
        "meta_mean_anomaly": 115.7282,
        "meta_ephemeris_type": 0,
        "meta_classification_type": "U",
        "meta_norad_cat_id": 41328,
        "meta_element_set_no": 999,
        "meta_rev_at_epoch": 7188,
        "meta_bstar": 0,
        "meta_mean_motion_dot": 1.1e-07,
        "meta_mean_motion_ddot": 0,
        "tle_line1": "1 41328U 16007A   25335.92354215  .00000011  00000+0  00000+0 0  9991",
        "tle_line2": "2 41328  55.3999  97.2864 0091648 243.3101 115.7282  2.00561140 71887"
      },
      "geometry": {
        "type": "Point",
        "coordinates": [
          32.85805113881805,
          -52.579260433168656
        ]
      }
    },
    {
      "type": "Feature",
      "properties": {
        "norad_id": 41330,
        "name": "COSMOS 2514 (751)",
        "group": "gnss",
        "lat": 16.47800070182376,
        "lon": 131.8165966473034,
        "alt_km": 19111.401190318637,
        "timestamp": "2025-12-03T19:33:07.219043+00:00",
        "meta_object_name": "COSMOS 2514 (751)",
        "meta_object_id": "2016-008A",
        "meta_epoch": "2025-12-02T04:41:58.161984",
        "meta_mean_motion": 2.13102491,
        "meta_eccentricity": 0.00124931,
        "meta_inclination": 65.1398,
        "meta_ra_of_asc_node": 319.7653,
        "meta_arg_of_pericenter": 219.8518,
        "meta_mean_anomaly": 140.0636,
        "meta_ephemeris_type": 0,
        "meta_classification_type": "U",
        "meta_norad_cat_id": 41330,
        "meta_element_set_no": 999,
        "meta_rev_at_epoch": 7642,
        "meta_bstar": 0,
        "meta_mean_motion_dot": -3.3e-07,
        "meta_mean_motion_ddot": 0,
        "tle_line1": "1 41330U 16008A   25336.19581206 -.00000033  00000+0  00000+0 0  9992",
        "tle_line2": "2 41330  65.1398 319.7653 0012493 219.8518 140.0636  2.13102491 76424"
      },
      "geometry": {
        "type": "Point",
        "coordinates": [
          131.8165966473034,
          16.47800070182376
        ]
      }
    }
  ]
}